OBJECT_NAME,OBJECT_ID,EPOCH,MEAN_MOTION,ECCENTRICITY,INCLINATION,RA_OF_ASC_NODE,ARG_OF_PERICENTER,MEAN_ANOMALY,EPHEMERIS_TYPE,CLASSIFICATION_TYPE,NORAD_CAT_ID,ELEMENT_SET_NO,REV_AT_EPOCH,BSTAR,MEAN_MOTION_DOT,MEAN_MOTION_DDOT
SL-12 R/B(2),1985-042D,2026-06-30T11:09:57.104064,14.22008270,.00369336,71.1063,209.4631,307.8829,153.9932,0,U,15772,999,13042,.26844443E-4,.12E-6,0
SL-14 R/B,1985-069B,2026-06-30T16:46:43.382208,14.86525785,.0018947,82.5274,278.6586,173.3453,186.8019,0,U,15945,999,18962,.47988E-4,.45E-5,0
SL-16 R/B,1985-097B,2026-06-30T11:27:03.724416,14.16614640,.00052524,71.0033,263.0988,82.1312,4.8807,0,U,16182,999,10320,.40555163E-4,.33E-6,0
SL-14 R/B,1986-006B,2026-06-30T10:37:47.169120,14.86957466,.00747098,82.5270,153.6388,258.6253,100.6565,0,U,16496,999,16596,.49103392E-4,.487E-5,0
COSMOS 1743,1986-034A,2026-06-30T19:23:12.020064,15.68213650,.0004796,82.5282,314.2371,222.0056,138.0838,0,U,16719,999,19792,.50619E-3,.5678E-3,0
SL-14 R/B,1986-046B,2026-06-30T11:43:19.648704,14.85680522,.00222499,82.4825,333.6057,212.0221,147.9645,0,U,16792,999,14315,.48955262E-4,.45E-5,0
SL-14 R/B,1986-055B,2026-06-30T13:00:02.955168,14.85731608,.00179042,82.5197,20.5760,322.6328,67.1730,0,U,16882,999,13612,.39441466E-4,.367E-5,0
AJISAI (EGS),1986-061A,2026-06-30T20:42:26.237952,12.44516691,.0011144,50.0093,105.3427,215.3392,191.0647,0,U,16908,999,48209,-.10546E-3,-.112E-5,0
SL-14 R/B,1987-024B,2026-06-30T11:32:23.694720,14.86222219,.00168018,82.5283,346.7538,245.1795,114.7675,0,U,17567,999,10488,.45918115E-4,.428E-5,0
COSMOS 1833,1987-027A,2026-06-30T03:12:19.564128,14.13059506,.00232892,70.9206,89.6571,33.5210,326.7379,0,U,17589,999,2620,.17097805E-3,.272E-5,0
SL-16 R/B,1987-027B,2026-06-30T13:21:24.008832,14.17174470,.00069014,71.0033,38.6558,297.9716,62.0709,0,U,17590,999,3133,.99817213E-4,.153E-5,0
SL-14 R/B,1987-038B,2026-06-30T11:11:44.962368,14.85452904,.0020059,82.5003,190.5636,147.9096,212.3346,0,U,17912,999,9597,.38488482E-4,.357E-5,0
COSMOS 1844,1987-041A,2026-06-30T07:56:05.631936,14.14570670,.00321979,70.8973,156.5827,216.2958,143.5980,0,U,17973,999,1951,.18026201E-3,.299E-5,0
SL-14 R/B,1987-055B,2026-06-30T15:00:50.937984,14.85719322,.0020625,82.4985,242.5614,4.5584,355.5816,0,U,18153,999,8670,.38561E-4,.36E-5,0
COSMOS 1867,1987-060A,2026-06-30T19:49:23.164320,14.31517185,.0016822,65.0117,349.8617,282.1331,77.7869,0,U,18187,999,3613,.23107E-4,-.39E-6,0
SL-14 R/B,1988-001B,2026-06-30T16:42:06.434784,14.85618522,.0016919,82.5133,89.0653,220.9382,139.0565,0,U,18749,999,5880,.42233E-4,.39E-5,0
COSMOS 1933,1988-020A,2026-06-30T08:18:48.845952,15.18799196,.00049304,82.5133,139.4036,145.5248,214.6307,0,U,18958,999,6732,.17529701E-3,.3677E-4,0
SL-3 R/B,1988-032B,2026-06-30T19:07:00.761376,15.20936740,.002498,97.5259,164.8243,195.2970,164.7513,0,U,19046,999,6929,.17741E-3,.3886E-4,0
SL-16 R/B,1988-039B,2026-06-30T10:31:00.142176,14.19630620,.00214583,71.0127,190.1384,173.0067,187.1362,0,U,19120,999,97438,-.203069E-5,-.52E-6,0
COSMOS 1953,1988-050A,2026-06-30T02:21:55.850976,15.30150879,.00123956,82.5070,45.0130,86.9914,273.2744,0,U,19210,999,5496,.24773832E-3,.7275E-4,0
SL-8 R/B,1988-053B,2026-06-30T15:40:14.862720,14.38972566,.0019279,74.0477,264.2359,54.5880,115.3432,0,U,19257,999,99284,.72434E-4,.198E-5,0
COSMOS 1975,1988-093A,2026-06-30T12:02:05.186688,15.29497833,.00123682,82.5187,4.3066,128.3104,231.9251,0,U,19573,999,3664,.23427186E-3,.6745E-4,0
SL-14 R/B,1988-093B,2026-06-30T18:15:35.032896,14.85751644,.0021287,82.5321,295.9018,27.8939,132.3305,0,U,19574,999,1780,.45528E-4,.421E-5,0
SL-16 R/B,1988-102B,2026-06-30T11:54:50.127264,14.16168757,.00151117,71.0004,274.1347,206.8921,153.1420,0,U,19650,999,94286,.10131833E-3,.153E-5,0
INTERCOSMOS 24,1989-080A,2026-06-30T12:25:46.851168,12.59680001,.11879694,82.6051,30.9700,30.9996,335.5989,0,U,20261,999,68100,.18534496E-3,.652E-5,0
SL-14 R/B,1989-080C,2026-06-30T18:17:20.122080,12.50575388,.1228376,82.5942,100.5866,286.3281,60.6392,0,U,20262,999,67428,.40044E-4,.133E-5,0
DELTA 1 R/B,1989-089B,2026-06-30T11:05:22.042752,14.50739394,.00702469,97.0632,10.8959,125.5373,235.2403,0,U,20323,999,91208,.83354822E-4,.304E-5,0
ARIANE 40 R/B,1990-005H,2026-06-30T04:16:15.891744,14.39933990,.00093098,98.2954,238.3899,220.5342,139.5154,0,U,20443,999,90899,.9280856E-4,.25E-5,0
DELTA 2 R/B(1),1990-008B,2026-06-30T08:30:24.194016,15.70903577,.00643489,35.5995,147.4369,238.5868,120.8567,0,U,20453,999,94377,.57859666E-3,.85618E-3,0
COSMOS 2058,1990-010A,2026-06-30T08:54:02.577888,15.12094037,.00085471,82.4695,296.3539,309.4295,50.6178,0,U,20465,999,95926,.15612956E-3,.2717E-4,0
